{"type": "FeatureCollection", "properties": {"regionId": "bay-area-counties", "source": "plotly/datasets geojson-counties-fips.json (MIT license, Census-TIGER-derived)."}, "features": [{"type": "Feature", "properties": {"name": "Napa", "fips": "06055", "regionId": "bay-area-counties"}, "geometry": {"type": "Polygon", "coordinates": [[[-122.103281, 38.513348], [-122.111563, 38.524051], [-122.128123, 38.583697], [-122.151772, 38.625297], [-122.168349, 38.619297], [-122.164944, 38.642462], [-122.287999, 38.839932], [-122.395056, 38.864245], [-122.46389, 38.705203], [-122.627396, 38.667506], [-122.646268, 38.59912], [-122.543893, 38.519966], [-122.378987, 38.250714], [-122.406786, 38.155632], [-122.19538, 38.155017], [-122.205982, 38.315713], [-122.064779, 38.315912], [-122.088835, 38.384151], [-122.103281, 38.513348]]]}}, {"type": "Feature", "properties": {"name": "San Francisco", "fips": "06075", "regionId": "bay-area-counties"}, "geometry": {"type": "MultiPolygon", "coordinates": [[[[-122.418698, 37.852717], [-122.421341, 37.869946], [-122.446316, 37.861046], [-122.434403, 37.852434], [-122.418698, 37.852717]]], [[[-122.502427, 37.708133], [-122.391374, 37.708331], [-122.370411, 37.717572], [-122.356784, 37.729505], [-122.375854, 37.734979], [-122.385323, 37.790724], [-122.407452, 37.811441], [-122.463793, 37.804653], [-122.478083, 37.810828], [-122.485783, 37.790629], [-122.514483, 37.780829], [-122.502427, 37.708133]]]]}}, {"type": "Feature", "properties": {"name": "San Mateo", "fips": "06081", "regionId": "bay-area-counties"}, "geometry": {"type": "Polygon", "coordinates": [[[-122.502427, 37.708133], [-122.496784, 37.686433], [-122.494085, 37.644035], [-122.501386, 37.599637], [-122.517187, 37.590637], [-122.513688, 37.552239], [-122.519533, 37.537302], [-122.516689, 37.52134], [-122.493789, 37.492341], [-122.472388, 37.50054], [-122.452087, 37.48054], [-122.443687, 37.435941], [-122.423286, 37.392542], [-122.40085, 37.359225], [-122.401323, 37.337009], [-122.411686, 37.265844], [-122.418452, 37.248521], [-122.407181, 37.219465], [-122.405073, 37.195791], [-122.390599, 37.182988], [-122.367085, 37.172817], [-122.359791, 37.155574], [-122.337833, 37.135936], [-122.337071, 37.117382], [-122.306139, 37.116383], [-122.292974, 37.107318], [-122.317682, 37.186945], [-122.152774, 37.215444], [-122.152278, 37.286055], [-122.190402, 37.431472], [-122.081473, 37.477838], [-122.116112, 37.505386], [-122.140142, 37.507907], [-122.168449, 37.504143], [-122.194957, 37.522469], [-122.196593, 37.537196], [-122.214264, 37.538505], [-122.262698, 37.572866], [-122.305895, 37.575484], [-122.317676, 37.590865], [-122.360219, 37.592501], [-122.378545, 37.605592], [-122.365455, 37.626208], [-122.386072, 37.637662], [-122.387381, 37.648462], [-122.374291, 37.662206], [-122.387626, 37.67906], [-122.391374, 37.708331], [-122.502427, 37.708133]]]}}, {"type": "Feature", "properties": {"name": "Solano", "fips": "06095", "regionId": "bay-area-counties"}, "geometry": {"type": "Polygon", "coordinates": [[[-122.103281, 38.513348], [-122.088835, 38.384151], [-122.064779, 38.315912], [-122.205982, 38.315713], [-122.19538, 38.155017], [-122.406786, 38.155632], [-122.403514, 38.150624], [-122.366273, 38.141467], [-122.314567, 38.115287], [-122.273006, 38.07438], [-122.266669, 38.06007], [-122.123973, 38.035717], [-122.050386, 38.060198], [-121.869469, 38.054519], [-121.862462, 38.06603], [-121.713926, 38.084542], [-121.688233, 38.145421], [-121.602763, 38.230219], [-121.60073, 38.278375], [-121.605258, 38.295352], [-121.593273, 38.313089], [-121.693697, 38.313732], [-121.694679, 38.52705], [-121.940285, 38.533384], [-122.011673, 38.488991], [-122.103281, 38.513348]]]}}, {"type": "Feature", "properties": {"name": "Contra Costa", "fips": "06013", "regionId": "bay-area-counties"}, "geometry": {"type": "Polygon", "coordinates": [[[-122.313496, 37.897211], [-122.30618, 37.898225], [-122.185977, 37.820726], [-122.004228, 37.770058], [-122.010771, 37.755127], [-122.001071, 37.739028], [-121.96077, 37.718629], [-121.881567, 37.737328], [-121.623724, 37.799291], [-121.556936, 37.817218], [-121.538026, 37.849622], [-121.575463, 37.863118], [-121.574849, 37.885021], [-121.55987, 37.920862], [-121.56364, 37.94611], [-121.579943, 37.976113], [-121.580022, 38.094414], [-121.679265, 38.089319], [-121.737824, 38.02663], [-121.862462, 38.06603], [-121.869469, 38.054519], [-122.050386, 38.060198], [-122.123973, 38.035717], [-122.266669, 38.06007], [-122.262861, 38.0446], [-122.283478, 38.022674], [-122.300823, 38.010893], [-122.321112, 38.012857], [-122.340093, 38.003694], [-122.368891, 38.007948], [-122.361905, 37.989991], [-122.367582, 37.978168], [-122.399832, 37.956009], [-122.430087, 37.963115], [-122.413725, 37.937262], [-122.39049, 37.922535], [-122.389181, 37.9101], [-122.362346, 37.904209], [-122.33453, 37.908791], [-122.313496, 37.897211]]]}}, {"type": "Feature", "properties": {"name": "Marin", "fips": "06041", "regionId": "bay-area-counties"}, "geometry": {"type": "Polygon", "coordinates": [[[-122.490727, 38.109755], [-122.565093, 38.182217], [-122.648986, 38.181077], [-122.7399, 38.207018], [-122.901726, 38.316943], [-123.002911, 38.295708], [-122.977082, 38.267902], [-122.968569, 38.242879], [-122.991953, 38.233185], [-122.968112, 38.202428], [-122.965408, 38.187113], [-122.953629, 38.17567], [-122.949074, 38.15406], [-122.960889, 38.112962], [-122.99242, 38.041758], [-123.011533, 38.003438], [-123.024066, 37.994878], [-122.97439, 37.992429], [-122.982386, 38.004274], [-122.972378, 38.020247], [-122.939711, 38.031908], [-122.882114, 38.025273], [-122.856573, 38.016717], [-122.821383, 37.996735], [-122.797405, 37.976657], [-122.783244, 37.951334], [-122.766138, 37.938004], [-122.736898, 37.925825], [-122.727297, 37.904626], [-122.70264, 37.89382], [-122.682171, 37.90645], [-122.656519, 37.904519], [-122.627113, 37.88608], [-122.60129, 37.875126], [-122.584289, 37.859227], [-122.561487, 37.851827], [-122.548986, 37.836227], [-122.523585, 37.824828], [-122.505383, 37.822128], [-122.476473, 37.832513], [-122.483102, 37.863957], [-122.462158, 37.868866], [-122.438268, 37.880974], [-122.448413, 37.89341], [-122.472303, 37.902573], [-122.478193, 37.918608], [-122.503064, 37.928753], [-122.48572, 37.937589], [-122.490302, 37.964751], [-122.471975, 37.981768], [-122.448413, 37.984713], [-122.462812, 38.003367], [-122.481466, 38.007621], [-122.497828, 38.019402], [-122.499465, 38.032165], [-122.483757, 38.071762], [-122.490727, 38.109755]]]}}, {"type": "Feature", "properties": {"name": "Alameda", "fips": "06001", "regionId": "bay-area-counties"}, "geometry": {"type": "Polygon", "coordinates": [[[-122.081473, 37.477838], [-122.052648, 37.459656], [-121.855762, 37.484537], [-121.472648, 37.48217], [-121.556655, 37.542732], [-121.556936, 37.817218], [-121.623724, 37.799291], [-121.881567, 37.737328], [-121.96077, 37.718629], [-122.001071, 37.739028], [-122.010771, 37.755127], [-122.004228, 37.770058], [-122.185977, 37.820726], [-122.30618, 37.898225], [-122.313496, 37.897211], [-122.310477, 37.873938], [-122.301313, 37.847758], [-122.303931, 37.830087], [-122.323567, 37.823214], [-122.333711, 37.809797], [-122.33079, 37.78383], [-122.293996, 37.770416], [-122.264101, 37.764667], [-122.242638, 37.753744], [-122.257953, 37.739601], [-122.246826, 37.72193], [-122.213774, 37.698695], [-122.203971, 37.697769], [-122.163049, 37.667933], [-122.152905, 37.640771], [-122.145378, 37.600846], [-122.147014, 37.588411], [-122.111998, 37.528851], [-122.116112, 37.505386], [-122.081473, 37.477838]]]}}, {"type": "Feature", "properties": {"name": "Sonoma", "fips": "06097", "regionId": "bay-area-counties"}, "geometry": {"type": "Polygon", "coordinates": [[[-122.627396, 38.667506], [-122.821592, 38.85014], [-123.080997, 38.852438], [-123.136253, 38.809136], [-123.26871, 38.808369], [-123.533535, 38.768408], [-123.514784, 38.741966], [-123.461291, 38.717001], [-123.441774, 38.699744], [-123.405663, 38.656729], [-123.379303, 38.621953], [-123.371876, 38.607235], [-123.349612, 38.596805], [-123.331899, 38.565542], [-123.287156, 38.540223], [-123.249797, 38.511045], [-123.202277, 38.494314], [-123.166428, 38.474947], [-123.128825, 38.450418], [-123.122379, 38.437314], [-123.085572, 38.390525], [-123.068265, 38.359865], [-123.068437, 38.33521], [-123.074684, 38.322574], [-123.063671, 38.302178], [-123.038742, 38.313576], [-123.024333, 38.310573], [-123.002911, 38.295708], [-122.901726, 38.316943], [-122.7399, 38.207018], [-122.648986, 38.181077], [-122.565093, 38.182217], [-122.490727, 38.109755], [-122.484411, 38.11496], [-122.439577, 38.116923], [-122.409798, 38.136231], [-122.403514, 38.150624], [-122.406786, 38.155632], [-122.378987, 38.250714], [-122.543893, 38.519966], [-122.646268, 38.59912], [-122.627396, 38.667506]]]}}, {"type": "Feature", "properties": {"name": "Santa Clara", "fips": "06085", "regionId": "bay-area-counties"}, "geometry": {"type": "Polygon", "coordinates": [[[-122.152278, 37.286055], [-122.015966, 37.165658], [-121.7576, 37.04963], [-121.654038, 36.950584], [-121.581354, 36.899152], [-121.501488, 36.971895], [-121.215406, 36.961248], [-121.226804, 37.134774], [-121.282271, 37.183675], [-121.404636, 37.155989], [-121.459051, 37.282739], [-121.405753, 37.31099], [-121.472648, 37.48217], [-121.855762, 37.484537], [-122.052648, 37.459656], [-122.081473, 37.477838], [-122.190402, 37.431472], [-122.152278, 37.286055]]]}}]}