{"type": "FeatureCollection", "properties": {"regionId": "california-state", "source": "Derived by dissolving CA county boundaries from plotly/datasets geojson-counties-fips.json (MIT license, Census-TIGER-derived)."}, "features": [{"type": "Feature", "properties": {"regionId": "california-state", "name": "California"}, "geometry": {"type": "MultiPolygon", "coordinates": [[[[-119.904315, 38.933324], [-120.001014, 38.999574], [-120.002461, 39.067489], [-120.005318, 39.316479], [-120.003117, 39.445045], [-120.001319, 39.722416], [-119.997291, 40.071803], [-119.995926, 40.499901], [-119.999866, 41.183974], [-119.999168, 41.99454], [-120.286424, 41.993058], [-121.035195, 41.993323], [-121.44754, 41.997169], [-122.378193, 42.009518], [-122.634739, 42.004858], [-123.045254, 42.003049], [-123.154908, 42.008036], [-123.347562, 41.999108], [-123.518075, 42.000436], [-123.821472, 41.995473], [-124.211605, 41.99846], [-124.203402, 41.940964], [-124.219592, 41.846432], [-124.255994, 41.783014], [-124.143479, 41.709284], [-124.100961, 41.602499], [-124.065521, 41.464739], [-124.072294, 41.374844], [-124.106986, 41.229678], [-124.1438, 41.144686], [-124.153622, 41.05355], [-124.112165, 41.028173], [-124.158322, 40.876069], [-124.329404, 40.61643], [-124.409591, 40.438076], [-124.347853, 40.314634], [-124.363414, 40.260974], [-124.187874, 40.130542], [-124.110549, 40.103765], [-124.079983, 40.029773], [-124.023938, 40.001284], [-123.930047, 39.909697], [-123.907664, 39.863028], [-123.851714, 39.832041], [-123.829545, 39.723071], [-123.792659, 39.684122], [-123.766475, 39.552803], [-123.81469, 39.446538], [-123.826306, 39.36871], [-123.803848, 39.278771], [-123.693969, 39.057363], [-123.725367, 38.917438], [-123.647387, 38.845472], [-123.533535, 38.768408], [-123.441774, 38.699744], [-123.331899, 38.565542], [-123.249797, 38.511045], [-123.128825, 38.450418], [-123.068265, 38.359865], [-123.074684, 38.322574], [-123.002911, 38.295708], [-122.968569, 38.242879], [-122.949074, 38.15406], [-123.011533, 38.003438], [-122.939711, 38.031908], [-122.821383, 37.996735], [-122.70264, 37.89382], [-122.656519, 37.904519], [-122.505383, 37.822128], [-122.472303, 37.902573], [-122.497828, 38.019402], [-122.490727, 38.109755], [-122.403514, 38.150624], [-122.314567, 38.115287], [-122.266669, 38.06007], [-122.300823, 38.010893], [-122.413725, 37.937262], [-122.313496, 37.897211], [-122.303931, 37.830087], [-122.33079, 37.78383], [-122.264101, 37.764667], [-122.246826, 37.72193], [-122.163049, 37.667933], [-122.116112, 37.505386], [-122.168449, 37.504143], [-122.262698, 37.572866], [-122.360219, 37.592501], [-122.391374, 37.708331], [-122.375854, 37.734979], [-122.407452, 37.811441], [-122.514483, 37.780829], [-122.502427, 37.708133], [-122.494085, 37.644035], [-122.517187, 37.590637], [-122.516689, 37.52134], [-122.452087, 37.48054], [-122.40085, 37.359225], [-122.418452, 37.248521], [-122.405073, 37.195791], [-122.337071, 37.117382], [-122.292974, 37.107318], [-122.20618, 37.013949], [-122.105976, 36.955951], [-121.972771, 36.954151], [-121.930069, 36.97815], [-121.862266, 36.931552], [-121.810552, 36.850648], [-121.788278, 36.803994], [-121.825052, 36.657207], [-121.871364, 36.604559], [-121.923866, 36.634559], [-121.970427, 36.582754], [-121.932508, 36.559935], [-121.9416, 36.485602], [-121.901813, 36.381879], [-121.894714, 36.317806], [-121.813734, 36.234235], [-121.717176, 36.195146], [-121.629634, 36.114452], [-121.574602, 36.025156], [-121.503112, 36.000299], [-121.462264, 35.885618], [-121.346363, 35.795183], [-121.284973, 35.674109], [-121.166712, 35.635399], [-121.101595, 35.548814], [-121.003359, 35.46071], [-120.907937, 35.449069], [-120.869209, 35.403276], [-120.8672, 35.327154], [-120.89679, 35.247877], [-120.856047, 35.206487], [-120.786076, 35.177666], [-120.698906, 35.171192], [-120.635787, 35.123805], [-120.629931, 35.061515], [-120.648905, 34.974393], [-120.647328, 34.901133], [-120.609898, 34.842751], [-120.637415, 34.755895], [-120.60197, 34.692095], [-120.645739, 34.581035], [-120.511421, 34.522953], [-120.471376, 34.447846], [-120.301822, 34.467077], [-120.141165, 34.473405], [-120.008077, 34.460447], [-119.873971, 34.408795], [-119.794771, 34.417597], [-119.709067, 34.395397], [-119.671866, 34.416096], [-119.559459, 34.413395], [-119.478265, 34.377197], [-119.270144, 34.252903], [-119.216441, 34.146105], [-119.130169, 34.100102], [-119.088536, 34.09831], [-118.944887, 34.04534], [-118.854653, 34.034215], [-118.805114, 34.001239], [-118.744952, 34.032103], [-118.569235, 34.04164], [-118.519514, 34.027509], [-118.44241, 33.940312], [-118.392107, 33.840915], [-118.428407, 33.774715], [-118.411211, 33.741985], [-118.258687, 33.703741], [-118.116703, 33.743549], [-117.927091, 33.605521], [-117.784888, 33.541525], [-117.726486, 33.483427], [-117.645582, 33.440728], [-117.59588, 33.386629], [-117.50565, 33.334063], [-117.328359, 33.121842], [-117.28077, 33.012343], [-117.25167, 32.874346], [-117.26107, 32.803148], [-117.246069, 32.669352], [-117.196767, 32.688851], [-117.139464, 32.627054], [-117.124862, 32.534156], [-116.106159, 32.618328], [-115.465164, 32.6671], [-114.719633, 32.718763], [-114.615733, 32.729427], [-114.496827, 32.822119], [-114.465715, 32.879191], [-114.468605, 32.971649], [-114.511343, 33.023455], [-114.62387, 33.02872], [-114.675104, 33.047532], [-114.707819, 33.091102], [-114.679359, 33.159519], [-114.672088, 33.258499], [-114.721233, 33.396912], [-114.627125, 33.433554], [-114.535664, 33.568788], [-114.530348, 33.679245], [-114.496489, 33.696901], [-114.523365, 33.80612], [-114.518434, 33.917518], [-114.499883, 33.961789], [-114.438266, 34.022609], [-114.435429, 34.079727], [-114.244191, 34.179625], [-114.164476, 34.251667], [-114.138282, 34.30323], [-114.176909, 34.349306], [-114.339627, 34.451435], [-114.452547, 34.653494], [-114.465607, 34.69226], [-114.552682, 34.766871], [-114.633051, 34.869971], [-114.633013, 35.002085], [-114.92548, 35.237054], [-115.648029, 35.809629], [-116.097216, 36.158346], [-116.488233, 36.459097], [-117.000895, 36.847694], [-117.500909, 37.220282], [-117.832726, 37.464929], [-118.428581, 37.895613], [-119.125982, 38.39317], [-119.585437, 38.713212], [-119.904315, 38.933324]]], [[[-120.248484, 33.999329], [-120.168974, 33.91909], [-120.121817, 33.895712], [-119.973691, 33.942481], [-120.073609, 34.024477], [-120.248484, 33.999329]]], [[[-119.789798, 34.05726], [-119.876329, 34.032087], [-119.873358, 33.980375], [-119.721206, 33.959583], [-119.686507, 34.019805], [-119.789798, 34.05726]]], [[[-118.524531, 32.895488], [-118.496298, 32.851572], [-118.425634, 32.800595], [-118.369984, 32.839273], [-118.496811, 32.933847], [-118.524531, 32.895488]]], [[[-118.500212, 33.449592], [-118.48877, 33.356649], [-118.465368, 33.326056], [-118.374768, 33.320065], [-118.310213, 33.335795], [-118.368301, 33.40711], [-118.500212, 33.449592]]], [[[-119.543842, 33.280329], [-119.564971, 33.24744], [-119.476029, 33.21552], [-119.458466, 33.254661], [-119.543842, 33.280329]]]]}}]}