{
  "type": "FeatureCollection",
  "properties": {
    "regionId": "east-contra-costa",
    "source": "Hand-drawn approximation, no authoritative published study-area boundary was found. Roughly encloses Antioch, Pittsburg, Oakley, Brentwood, and the Bethel Island area of eastern Contra Costa County."
  },
  "features": [
    {
      "type": "Feature",
      "properties": {
        "regionId": "east-contra-costa",
        "name": "East Contra Costa (approximate)",
        "_meta": { "approximate": true }
      },
      "geometry": {
        "type": "Polygon",
        "coordinates": [
          [
            [-121.92, 38.06],
            [-121.85, 38.04],
            [-121.72, 38.06],
            [-121.60, 38.05],
            [-121.58, 37.98],
            [-121.63, 37.90],
            [-121.72, 37.88],
            [-121.85, 37.93],
            [-121.90, 37.98],
            [-121.92, 38.06]
          ]
        ]
      }
    }
  ]
}
