{"type": "FeatureCollection", "properties": {"regionId": "orange-county", "source": "plotly/datasets geojson-counties-fips.json (MIT license, Census-TIGER-derived)."}, "features": [{"type": "Feature", "properties": {"name": "Orange", "fips": "06059", "regionId": "orange-county"}, "geometry": {"type": "Polygon", "coordinates": [[[-118.093008, 33.786289], [-118.09197, 33.758472], [-118.116703, 33.743549], [-118.088896, 33.729817], [-118.000593, 33.654319], [-117.940591, 33.620021], [-117.927091, 33.605521], [-117.87679, 33.592322], [-117.814188, 33.552224], [-117.784888, 33.541525], [-117.726486, 33.483427], [-117.715349, 33.460556], [-117.684584, 33.461927], [-117.645582, 33.440728], [-117.607905, 33.406317], [-117.59588, 33.386629], [-117.509722, 33.505019], [-117.412987, 33.659045], [-117.474573, 33.703811], [-117.533999, 33.710355], [-117.680289, 33.877412], [-117.783287, 33.946411], [-117.97653, 33.928034], [-117.976586, 33.906225], [-118.084597, 33.803216], [-118.093008, 33.786289]]]}}]}